# Made by eph2tle, compiled Apr 14 2023 10:14:57
# Run at Sat Apr 15 16:55:29 2023
#
#    The following TLEs (Two-Line Elements) were generated by fitting
# a numerically-integrated ephemeris,  based on the orbit given below,
# to the SDP4/SGP4 models.  Each TLE is good for the interval between
# its epoch and the epoch of the subsequent TLE (usually one day).
# The maximum deviation between the numerically integrated ephemerides
# and the TLE-based ephemeris, in kilometers,  is given for each TLE
# as the "worst residual".
#
#    This fitting is done using the 'eph2tle' code packaged with Find_Orb.
# The code has details on how the TLEs were computed :
#
#    https://github.com/Bill-Gray/find_orb/eph2tle.cpp
#
#    Be warned:  the error given is that between the numerically
# integrated ephems and the TLE model.  There will usually be at
# least some additional difference between the ephems and the actual
# motion of the satellite,  especially if the ephemerides are based
# on a short arc.  If the following orbital elements say something
# like "[based on] 10 observations 2015 Jan. 1-13",  and the TLEs
# are for 2015 May,  the extrapolation may be tenuous at best.  If
# your application requires a specific level of accuracy,  you may
# want to contact me;  I can give you some idea as to the fit of the
# underlying data (and possibly TLEs based on newer data).
#
#   You can usually find the underlying observational data,  and the
# fitted orbit,  residuals,  ephemerides,  and sometimes some comments
# about the object,  among the pages listed at
#
#    https://www.projectpluto.com/pluto/mpecs/pseudo.htm
#
#    WARNING:  for this object,  "normal" TLEs cannot be fitted.  (This
# usually means an object with an hyperbolic or nearly-parabolic orbit.)
# For this and similar cases,   an alternative model is used,  in which
# most of the traditional TLE data is replaced by six signed 8-digit hex
# numbers.  These six numbers are a state vector,  numerically integrated
# using a simplified force model.  This is necessary for objects at L2 or
# L1,  and sometimes for objects in high orbits where the SDP4/SGP4 model
# fails.  Some documentation is in 'get_el.cpp' in the source code at
# https://www.github.com/Bill-Gray/sat_code ; look for 'hex' in that file,
# with the actual integration done in 'sdp4.cpp'.  But be aware:  it's my
# own extension,  doesn't work with other code,  and is therefore used
# only when necessary.
#
#    Also,  if you use a TLE outside the "correct" time range (between
# its MJD and that of the next TLE),  all bets are off.  I've carefully
# computed and minimized the worst error over the "correct" time frame,
# but the ephemeris may (or may not) diverge wildly outside of it.
#
# Ephem range: 60048.600000 60078.600000 1.000000
# Created Sat Apr 15 16:55:26 2023
# Ephemeris start: 14 Apr 2023 14:24:00
# Ephemeris end:   14 May 2023 14:24:00
# Times are all TDT
# Positions/velocities are in ecliptic J2000
# Orbital elements:  JUICE booster = 2023-053B = NORAD 56177
#    Perigee 2023 Apr 14.5243761 +/- 4.06e-6 TT = 12:35:06.09 (JD 2460049.0243761)
# Epoch 2023 Apr 15.0 TT = JDT 2460049.5                           Find_Orb
# q  6694.0213749 +/- 0.197           (J2000 equator)
# H   26.94 G 0.15                    Peri.  177.2709642 +/- 0.0016
#                                     Node   213.9128389 +/- 0.0014
# e   1.112061311 +/- 7.92e-6         Incl.    5.9657528 +/- 0.00020
# 110 of 123 observations 2023 Apr. 14-15 (25.5 hr); mean residual 0".533
#
# 1 NoradU COSPAR   Epoch.epoch     dn/dt/2  d2n/dt2/6 BSTAR    T El# C
# 2 NoradU Inclina RAAscNode Eccent  ArgPeri MeanAno  MeanMotion Rev# C

# Worst residual: 1.61 km
# MJD 60048.600000 (2023 Apr 14 14:24)
JUICE booster = 2023-053B = NORAD 56177
1 56177U 23053B   23104.59919926 -000LXBMT +00097GQS -00024QHNH 19318
2 56177                          -000ULTN9 +0000S4H7 -0001XP5P     06

# Worst residual: 2.95 km
# MJD 60049.600000 (2023 Apr 15 14:24)
JUICE booster = 2023-053B = NORAD 56177
1 56177U 23053B   23105.59919926 -005HZ2BK -0003NWQE -000BRBCQH 19318
2 56177                          -000HTZFU -0001NYYW -0000XWV2     04

# Worst residual: 7.80 km
# MJD 60050.600000 (2023 Apr 16 14:24)
JUICE booster = 2023-053B = NORAD 56177
1 56177U 23053B   23106.59919926 -009MSU2A -000HWHH3 -000JKWSCH 19313
2 56177                          -000GTAE1 -0001MROV -0000VPOF     03

# Worst residual: 1.64 km
# MJD 60051.600000 (2023 Apr 17 14:24)
JUICE booster = 2023-053B = NORAD 56177
1 56177U 23053B   23107.59919926 -00DM6NJF -000VXR3A -000R38ACH 19310
2 56177                          -000GFDU9 -0001MB8R -0000UZHZ     09

# Worst residual: 0.65 km
# MJD 60052.600000 (2023 Apr 18 14:24)
JUICE booster = 2023-053B = NORAD 56177
1 56177U 23053B   23108.59919926 -00HJ7SIR -0019Y0ZD -000YHWK4H 19312
2 56177                          -000G8MG2 -0001MIE2 -0000UT51     00

# Worst residual: 0.73 km
# MJD 60053.600000 (2023 Apr 19 14:24)
JUICE booster = 2023-053B = NORAD 56177
1 56177U 23053B   23109.59919926 -00LF249A -001O2CPN -0015WKXTH 19316
2 56177                          -000G541V -0001N8EC -0000UYST     00

# Worst residual: 0.80 km
# MJD 60054.600000 (2023 Apr 20 14:24)
JUICE booster = 2023-053B = NORAD 56177
1 56177U 23053B   23110.59919926 -00PAAG0T -0022EW3F -001DDQP4H 19316
2 56177                          -000G3DD8 -0001OEF3 -0000VDH7     03

# Worst residual: 0.90 km
# MJD 60055.600000 (2023 Apr 21 14:24)
JUICE booster = 2023-053B = NORAD 56177
1 56177U 23053B   23111.59919926 -00T58P2N -002H38FB -001KZC8HH 19312
2 56177                          -000G2P41 -0001PYG2 -0000VZKA     01

# Worst residual: 1.05 km
# MJD 60056.600000 (2023 Apr 22 14:24)
JUICE booster = 2023-053B = NORAD 56177
1 56177U 23053B   23112.59919926 -00X04APJ -002W6JKO -001SR0LXH 19319
2 56177                          -000G2PKS -0001RUVK -0000WRYS     04

# Worst residual: 1.27 km
# MJD 60057.600000 (2023 Apr 23 14:24)
JUICE booster = 2023-053B = NORAD 56177
1 56177U 23053B   23113.59919926 -010V24PF -003BRMRD -0020Q6N9H 19314
2 56177                          -000G36OB -0001U2DH -0000XPUL     03

# Worst residual: 1.51 km
# MJD 60058.600000 (2023 Apr 24 14:24)
JUICE booster = 2023-053B = NORAD 56177
1 56177U 23053B   23114.59919926 -014Q5JCR -003RX0NG -0028Y2OMH 19313
2 56177                          -000G3ZD1 -0001WJTU -0000YSJG     06

# Worst residual: 1.72 km
# MJD 60059.600000 (2023 Apr 25 14:24)
JUICE booster = 2023-053B = NORAD 56177
1 56177U 23053B   23115.59919926 -018LGVN9 -0048OZ8K -002HFRTIH 19319
2 56177                          -000G50CV -0001ZAC5 -0000ZZHQ     02

# Worst residual: 1.85 km
# MJD 60060.600000 (2023 Apr 26 14:24)
JUICE booster = 2023-053B = NORAD 56177
1 56177U 23053B   23116.59919926 -01CH1V7B -004Q5LH8 -002Q88WGH 19314
2 56177                          -000G67G3 -00022964 -00011A9J     01

# Worst residual: 1.91 km
# MJD 60061.600000 (2023 Apr 27 14:24)
JUICE booster = 2023-053B = NORAD 56177
1 56177U 23053B   23117.59919926 -01GCXRLK -0058CSMV -002ZCDAYH 19317
2 56177                          -000G7J2V -00025FQ9 -00012OHO     09

# Worst residual: 1.91 km
# MJD 60062.600000 (2023 Apr 28 14:24)
JUICE booster = 2023-053B = NORAD 56177
1 56177U 23053B   23118.59919926 -01K95J0Q -005RCD8F -0038SXHHH 19311
2 56177                          -000G8Y54 -00028TID -000145UV     08

# Worst residual: 1.90 km
# MJD 60063.600000 (2023 Apr 29 14:24)
JUICE booster = 2023-053B = NORAD 56177
1 56177U 23053B   23119.59919926 -01O5PVEN -006B5ZOS -003IMNCIH 19313
2 56177                          -000GAFTO -0002CE27 -00015Q2Z     00

# Worst residual: 1.94 km
# MJD 60064.600000 (2023 Apr 30 14:24)
JUICE booster = 2023-053B = NORAD 56177
1 56177U 23053B   23120.59919926 -01S2NCSP -006VV8NP -003SU6FVH 19311
2 56177                          -000GBZK9 -0002G4YM -00017CWI     04

# Worst residual: 2.05 km
# MJD 60065.600000 (2023 May  1 14:24)
JUICE booster = 2023-053B = NORAD 56177
1 56177U 23053B   23121.59919926 -01VZYFBF -007HHLAF -0043G432H 19310
2 56177                          -000GDL0I -0002K1TJ -0001922D     08

# Worst residual: 2.23 km
# MJD 60066.600000 (2023 May  2 14:24)
JUICE booster = 2023-053B = NORAD 56177
1 56177U 23053B   23122.59919926 -01ZXNH2K -00842FI9 -004EGZHYH 19317
2 56177                          -000GF81Z -0002O4AD -0001ATC7     04

# Worst residual: 2.43 km
# MJD 60067.600000 (2023 May  3 14:24)
JUICE booster = 2023-053B = NORAD 56177
1 56177U 23053B   23123.59919926 -023VQW1F -008RN2K4 -004PXA1FH 19313
2 56177                          -000GGWS1 -0002SC3O -0001CMJ1     09

# Worst residual: 2.59 km
# MJD 60068.600000 (2023 May  4 14:24)
JUICE booster = 2023-053B = NORAD 56177
1 56177U 23053B   23124.59919926 -027U93X9 -009G8S06 -0051TFOBH 19318
2 56177                          -000GINHG -0002WP58 -0001EHIG     07

# Worst residual: 2.66 km
# MJD 60069.600000 (2023 May  5 14:24)
JUICE booster = 2023-053B = NORAD 56177
1 56177U 23053B   23125.59919926 -02BT6NQ3 -00A5WTA7 -005E5VREH 19313
2 56177                          -000GKGML -000317IP -0001GEA1     04

# Worst residual: 2.62 km
# MJD 60070.600000 (2023 May  6 14:24)
JUICE booster = 2023-053B = NORAD 56177
1 56177U 23053B   23126.59919926 -02FSK6QO -00AWOHUZ -005QZ25HH 19311
2 56177                          -000GMCQ8 -00035VLM -0001ICYK     08

# Worst residual: 2.53 km
# MJD 60071.600000 (2023 May  7 14:24)
JUICE booster = 2023-053B = NORAD 56177
1 56177U 23053B   23127.59919926 -02JSEGM6 -00BOL9RS -00649GKXH 19318
2 56177                          -000GOC8Y -0003AQ2J -0001KDUX     05

# Worst residual: 2.47 km
# MJD 60072.600000 (2023 May  8 14:24)
JUICE booster = 2023-053B = NORAD 56177
1 56177U 23053B   23128.59919926 -02NSQC79 -00CHOS71 -006I1O3UH 19319
2 56177                          -000GQFG2 -0003FRW3 -0001MHFU     00

# Worst residual: 2.51 km
# MJD 60073.600000 (2023 May  9 14:24)
JUICE booster = 2023-053B = NORAD 56177
1 56177U 23053B   23129.59919926 -02RTKP8H -00DC0XKJ -006WCEE4H 19314
2 56177                          -000GSM90 -0003L287 -0001OOAO     01

# Worst residual: 2.68 km
# MJD 60074.600000 (2023 May 10 14:24)
JUICE booster = 2023-053B = NORAD 56177
1 56177U 23053B   23130.59919926 -02VUYD49 -00E7NWUF -007B6IKWH 19311
2 56177                          -000GUW6J -0003QMBS -0001QZ3C     04

# Worst residual: 2.95 km
# MJD 60075.600000 (2023 May 11 14:24)
JUICE booster = 2023-053B = NORAD 56177
1 56177U 23053B   23131.59919926 -02ZWVZ99 -00F4O7M3 -007QL1LFH 19319
2 56177                          -000GX8C2 -0003WHDT -0001TEHO     05

# Worst residual: 3.29 km
# MJD 60076.600000 (2023 May 12 14:24)
JUICE booster = 2023-053B = NORAD 56177
1 56177U 23053B   23132.59919926 -033ZDXIP -00G34L50 -0086L5UTH 19315
2 56177                          -000GZLF1 -00042OF7 -0001VZ38     07

# Worst residual: 3.63 km
# MJD 60077.600000 (2023 May 13 14:24)
JUICE booster = 2023-053B = NORAD 56177
1 56177U 23053B   23133.59919926 -0382G977 -00H340G2 -008N86GRH 19316
2 56177                          -000H1XTS -0004987B -0001YPD9     00
Avg worst resid: 2.23 km
Worst residual in entire run: 7.80 km on MJD 60050.6
       1     3     10    30    100   300   1K    3K    10K   km
     4    23     3     0     0     0     0     0     0     0
